{"fetched_at":"2026-03-29T16:36:15Z","count":15609,"tles":[{"name":"STARLINK-5752","line1":"1 55577U 23020J   26087.86365415 -.00000091  00000+0  62963-5 0  9998","line2":"2 55577  42.9997 256.9850 0001361 284.4413  75.6287 15.26734335171848","category":"Starlink"}]}